satname,norad_id,inclination_deg,eccentricity,mean_motion_rev_per_day,perigee_km,apogee_km,l1,l2
STARLINK-1304,45376,53.0546,0.0001434,15.06409982,546.1878741187447,548.1740553110249,1 45376U 20019S   25310.45635242  .00014356  00000+0  98040-3 0  9991,2 45376  53.0546 359.8338 0001434 103.2062 256.9087 15.06409982311157
STARLINK-1305,45377,53.0541,0.0001969,15.31957963,468.6227363622911,471.3195213434328,1 45377U 20019T   25310.43061304  .00085278  00000+0  27065-2 0  9991,2 45377  53.0541 356.6014 0001969  58.2457 301.8734 15.31957963311209
STARLINK-1319,45379,53.0583,0.0001005,15.33668208,464.19142193376774,465.5668681789248,1 45379U 20019V   25310.91668980  .01135922  00000+0  31334-1 0  9995,2 45379  53.0583 356.5088 0001005  90.3356  76.5346 15.33668208  5852
STARLINK-1266,45383,53.0546,0.0001778,15.06420596,545.9171191335217,548.3797506341652,1 45383U 20019Z   25310.47663712  .00011763  00000+0  80681-3 0  9995,2 45383  53.0546 339.7457 0001778  75.1462 284.9724 15.06420596311430
STARLINK-1267,45384,53.0566,0.000168,15.06405497,546.0312547488629,548.3581662035813,1 45384U 20019AA  25310.39561435  .00004189  00000+0  29993-3 0  9999,2 45384  53.0566 340.7680 0001680 106.5565 253.5609 15.06405497311413
STARLINK-1272,45386,53.0535,0.0003184,15.3451607,460.1802637556784,464.53629114835985,1 45386U 20019AC  25310.74945588  .00083610  00000+0  24489-2 0  9995,2 45386  53.0535 335.1691 0003184  33.0406 327.0793 15.34516070311524
STARLINK-1274,45387,53.0347,0.0003092,15.29553695,475.02584577642483,479.26515247388306,1 45387U 20019AD  25310.34045206  .00094856  00000+0  32375-2 0  9997,2 45387  53.0347 324.6621 0003092 297.1340  62.9344 15.29553695311637
STARLINK-1280,45388,53.0542,0.0003519,15.40164139,443.2231768045385,448.0257401190038,1 45388U 20019AE  25310.41173146  .00100322  00000+0  24406-2 0  9993,2 45388  53.0542 356.0135 0003519  12.8640 347.2453 15.40164139311198
STARLINK-1283,45389,53.0547,0.0004681,15.30925674,469.84215332381154,476.2562338382422,1 45389U 20019AF  25310.47283258  .00090664  00000+0  29678-2 0  9999,2 45389  53.0547 335.2043 0004681  28.0582 332.0669 15.30925674311500
STARLINK-1284,45390,53.055,0.0001431,15.06405431,546.2038977587781,548.185927752209,1 45390U 20019AG  25310.34761756  .00005127  00000+0  36280-3 0  9999,2 45390  53.0550 340.3267 0001431  95.0385 265.0767 15.06405431311417
STARLINK-1292,45394,53.0417,0.0007056,16.00941909,267.11690365271807,276.5013075969764,1 45394U 20019AL  25310.65236367  .00608759  17816-3  11014-2 0  9996,2 45394  53.0417 285.0113 0007056  46.8702 313.2916 16.00941909311955
STARLINK-1297,45395,53.0549,0.00014,15.06407376,546.2194060196261,548.1584972860901,1 45395U 20019AM  25310.51716941  .00005688  00000+0  40036-3 0  9995,2 45395  53.0549 339.5590 0001400  95.1408 264.9741 15.06407376310624
STARLINK-1307,45397,53.0563,0.0001836,15.06407438,545.9172718235086,548.4602514431799,1 45397U 20019AP  25310.37710191  .00011037  00000+0  75850-3 0  9999,2 45397  53.0563 340.1894 0001836  92.5313 267.5886 15.06407438311243
STARLINK-1312,45398,53.0363,0.0003484,16.12657366,237.25784275684055,241.86905643011778,1 45398U 20019AQ  25310.93792438  .01390542  13840-2  12283-2 0  9997,2 45398  53.0363 282.3322 0003484  78.6237 281.5188 16.12657366312030
STARLINK-1255,45399,53.0487,0.0003116,15.30934964,470.8866563843967,475.15629834749143,1 45399U 20019AR  25310.48135750  .00091690  00000+0  30004-2 0  9999,2 45399  53.0487 326.2526 0003116  36.2877 323.8333 15.30934964311430
STARLINK-1260,45404,53.0547,0.0001276,15.06419832,546.2671096611757,548.0344431017074,1 45404U 20019AW  25310.37801957 -.00006987  00000+0 -45041-3 0  9998,2 45404  53.0547 330.1844 0001276  96.8697 263.2437 15.06419832311277
STARLINK-1263,45405,53.0541,0.0001362,15.06427277,546.1847380359159,548.0711802107817,1 45405U 20019AX  25310.49597523  .00008915  00000+0  61620-3 0  9995,2 45405  53.0541 329.6582 0001362  93.1441 266.9704 15.06427277311298
STARLINK-1265,45406,53.0554,0.0001294,15.06440207,546.1922078570105,547.984456172936,1 45406U 20019AY  25310.50331799  .00007057  00000+0  49163-3 0  9993,2 45406  53.0554 329.6253 0001294  89.9789 270.1349 15.06440207311290
STARLINK-1278,45408,53.0538,0.0003101,15.33764028,462.47220521503004,466.7160670656649,1 45408U 20019BA  25310.41537505  .00092105  00000+0  27584-2 0  9998,2 45408  53.0538 356.7034 0003101   9.7696 350.3364 15.33764028310914
STARLINK-1296,45412,53.0545,0.0001693,15.06430487,545.945675558014,548.2905669420707,1 45412U 20019BE  25310.37434562  .00013743  00000+0  93896-3 0  9998,2 45412  53.0545 330.1987 0001693  79.3943 280.7237 15.06430487311276
STARLINK-1298,45413,53.0472,0.0008707,15.54043786,399.0276309959754,410.83967022695015,1 45413U 20019BF  25310.91668980  .00048603  00000+0  73911-3 0  9991,2 45413  53.0472 301.7546 0008707 344.8696 222.2875 15.54043786  5970
STARLINK-1309,45414,53.0551,0.000148,15.06412556,546.1481299827356,548.1980217651944,1 45414U 20019BG  25310.32274095  .00008348  00000+0  57847-3 0  9999,2 45414  53.0551 330.4372 0001480  96.5885 263.5273 15.06412556311250
STARLINK-1316,45415,53.0562,0.0001518,15.06404968,546.1450661758827,548.2475973754099,1 45415U 20019BH  25310.48123649  .00006324  00000+0  44303-3 0  9990,2 45415  53.0562 329.7229 0001518  84.6448 275.4714 15.06404968311317
STARLINK-1318,45416,53.051,0.0005542,15.60956861,381.14378914869667,388.6399303368353,1 45416U 20019BJ  25310.25959605  .00069181  00000+0  80882-3 0  9997,2 45416  53.0510 296.1417 0005542  54.3874 305.7654 15.60956861311757
STARLINK-1286,45417,53.0543,0.0001426,15.36027085,456.896655328399,458.8462849440821,1 45417U 20019BK  25310.51077574  .00091223  00000+0  25428-2 0  9999,2 45417  53.0543 356.6951 0001426  51.4922 308.6207 15.36027085311192
STARLINK-1308,45419,53.0557,0.0001529,15.06407901,546.128460525083,548.2462247090562,1 45419U 20019BM  25310.51532670  .00011509  00000+0  79011-3 0  9991,2 45419  53.0557 359.5707 0001529 101.7482 258.3678 15.06407901310901
STARLINK-1329,45531,53.0542,0.0001369,15.06406422,546.2437979800816,548.1399530261951,1 45531U 20025A   25310.28495145  .00004001  00000+0  28726-3 0  9998,2 45531  53.0542 300.6034 0001369  79.7454 280.3689 15.06406422306498
STARLINK-1338,45532,53.056,0.0001488,15.06406014,546.1626368330317,548.2236150785156,1 45532U 20025B   25310.29601168  .00000800  00000+0  72580-4 0  9995,2 45532  53.0560 300.5535 0001488  94.8933 265.2226 15.06406014306492
STARLINK-1350,45535,53.0748,0.0002109,15.32475099,466.9864982757981,469.8743804217147,1 45535U 20025E   25310.81165544  .00026582  00000+0  84459-3 0  9991,2 45535  53.0748 248.6790 0002109  71.4184 288.7046 15.32475099307295
STARLINK-1362,45538,53.0548,0.0001655,15.06400013,546.0653729154055,548.3576632748955,1 45538U 20025H   25310.26185655 -.00001758  00000+0 -99140-4 0  9992,2 45538  53.0548 300.4253 0001655 101.3762 258.7413 15.06400013306498
STARLINK-1368,45540,53.0544,0.000128,15.06393151,546.3461019140741,548.1189965186722,1 45540U 20025K   25310.66459852  .00000502  00000+0  52575-4 0  9997,2 45540  53.0544 298.8986 0001280  81.6145 278.4989 15.06393151306546
STARLINK-1371,45542,53.0556,0.0001358,15.06404388,546.2576488750565,548.1385698907652,1 45542U 20025M   25310.30338432  .00001834  00000+0  14199-3 0  9998,2 45542  53.0556 300.5203 0001358  92.2954 267.8190 15.06404388306491
STARLINK-1372,45543,53.0556,0.0001397,15.06408428,546.2182598675372,548.1531950375875,1 45543U 20025N   25310.67197397 -.00000725  00000+0 -29800-4 0  9998,2 45543  53.0556 298.8662 0001397  99.0310 261.0837 15.06408428305643
STARLINK-1373,45544,53.0548,0.000155,15.06395852,546.1508399930244,548.2977019870314,1 45544U 20025P   25310.29233106  .00005848  00000+0  41121-3 0  9994,2 45544  53.0548 300.5703 0001550  96.4575 263.6590 15.06395852306491
STARLINK-1294,45551,53.048,0.000808,15.60764798,379.98169802001576,390.91164923659835,1 45551U 20025W   25310.77281962  .00089091  00000+0  10442-2 0  9991,2 45551  53.0480 229.1406 0008080  74.7813 285.4093 15.60764798307545
STARLINK-1325,45554,53.0559,0.0001862,15.6252348,379.11216630529543,381.62903453569197,1 45554U 20025Z   25310.03098143  .00140833  00000+0  15310-2 0  9991,2 45554  53.0559 225.6370 0001862 127.8573 232.2609 15.62523480307535
STARLINK-1327,45555,53.0551,0.000172,15.06410623,545.9878458125704,548.3701545166277,1 45555U 20025AA  25310.19833556  .00003992  00000+0  28667-3 0  9998,2 45555  53.0551 280.9913 0001720  99.8849 260.2334 15.06410623306753
STARLINK-1356,45564,53.0557,0.0001539,15.06412517,546.1073901626187,548.2390006407632,1 45564U 20025AK  25310.20201375  .00000036  00000+0  21328-4 0  9992,2 45564  53.0557 280.9735 0001539  97.4104 262.7060 15.06412517306754
STARLINK-1357,45565,53.0628,0.0008662,15.33517926,459.3983987789625,471.25401443809096,1 45565U 20025AL  25310.58668185  .00112209  00000+0  33723-2 0  9996,2 45565  53.0628 263.1744 0008662  31.3355 328.8160 15.33517926307044
STARLINK-1361,45567,53.0543,0.0001405,15.06394843,546.2543497525594,548.200377138688,1 45567U 20025AN  25310.15410418  .00004021  00000+0  28874-3 0  9999,2 45567  53.0543 281.1891 0001405  90.5700 269.5450 15.06394843306755
STARLINK-1363,45568,53.0543,0.0003624,15.42424185,436.4866105764622,441.42764039861595,1 45568U 20025AP  25310.91668980  .00147675  00000+0  33081-2 0  9991,2 45568  53.0543 273.8015 0003624  94.6968 357.8546 15.42424185  5800
STARLINK-1366,45569,53.0523,0.0003693,15.41056358,440.47134534752786,445.509430036077,1 45569U 20025AQ  25310.91668980  .00134556  00000+0  31609-2 0  9990,2 45569  53.0523 273.3105 0003693  87.3529 192.2428 15.41056358  5859
STARLINK-1376,45570,53.0546,0.0001476,15.0640653,546.1693660078981,548.2137229942346,1 45570U 20025AR  25310.61484648  .00000569  00000+0  57069-4 0  9992,2 45570  53.0546 279.1238 0001476  90.9329 269.1829 15.06406530306813
